{"type": "FeatureCollection", "features": [ {"type": "Feature", "properties": {"norad_id": 31010, "name": "FENGYUN 1C DEB", "group": "fengyun-1c-debris", "lat": -42.88539836099576, "lon": 142.0283011892315, "alt_km": 753.4351699048957, "timestamp": "2025-12-10T14:53:37.371558+00:00", "meta": {"OBJECT_NAME": "FENGYUN 1C DEB", "OBJECT_ID": "1999-025BDC", "EPOCH": "2025-12-10T04:59:26.185344", "MEAN_MOTION": 14.25736471, "ECCENTRICITY": 0.01132936, "INCLINATION": 101.725, "RA_OF_ASC_NODE": 130.3567, "ARG_OF_PERICENTER": 1.0955, "MEAN_ANOMALY": 359.0442, "EPHEMERIS_TYPE": 0, "CLASSIFICATION_TYPE": "U", "NORAD_CAT_ID": 31010, "ELEMENT_SET_NO": 999, "REV_AT_EPOCH": 95593, "BSTAR": 0.0048719403, "MEAN_MOTION_DOT": 0.00012329, "MEAN_MOTION_DDOT": 0}, "tle": {"line1": "1 31010U 99025BDC 25344.20794196  .00012329  00000+0  48719-2 0  9993", "line2": "2 31010 101.7250 130.3567 0113293   1.0955 359.0442 14.25736471955935"}}, "geometry": {"type": "Point", "coordinates": [142.0283011892315, -42.88539836099576]}}, {"type": "Feature", "properties": {"norad_id": 31012, "name": "FENGYUN 1C DEB", "group": "fengyun-1c-debris", "lat": 44.34712875752499, "lon": -126.14493714149609, "alt_km": 844.1476120925709, "timestamp": "2025-12-10T14:53:37.371567+00:00", "meta": {"OBJECT_NAME": "FENGYUN 1C DEB", "OBJECT_ID": "1999-025BDE", "EPOCH": "2025-12-10T05:20:26.850336", "MEAN_MOTION": 14.27859048, "ECCENTRICITY": 0.00813121, "INCLINATION": 98.9116, "RA_OF_ASC_NODE": 242.2713, "ARG_OF_PERICENTER": 258.8192, "MEAN_ANOMALY": 260.9104, "EPHEMERIS_TYPE": 0, "CLASSIFICATION_TYPE": "U", "NORAD_CAT_ID": 31012, "ELEMENT_SET_NO": 999, "REV_AT_EPOCH": 97711, "BSTAR": 0.00031865514, "MEAN_MOTION_DOT": 7.7e-06, "MEAN_MOTION_DDOT": 0}, "tle": {"line1": "1 31012U 99025BDE 25344.22253299  .00000770  00000+0  31866-3 0  9994", "line2": "2 31012  98.9116 242.2713 0081312 258.8192 260.9104 14.27859048977119"}}, "geometry": {"type": "Point", "coordinates": [-126.14493714149609, 44.34712875752499]}}, {"type": "Feature", "properties": {"norad_id": 31014, "name": "FENGYUN 1C DEB", "group": "fengyun-1c-debris", "lat": 15.25920772759702, "lon": 142.7407329758639, "alt_km": 847.2096325545444, "timestamp": "2025-12-10T14:53:37.371576+00:00", "meta": {"OBJECT_NAME": "FENGYUN 1C DEB", "OBJECT_ID": "1999-025BDG", "EPOCH": "2025-12-09T16:36:46.424736", "MEAN_MOTION": 13.98487967, "ECCENTRICITY": 0.00875696, "INCLINATION": 98.868, "RA_OF_ASC_NODE": 319.4021, "ARG_OF_PERICENTER": 201.7995, "MEAN_ANOMALY": 331.8601, "EPHEMERIS_TYPE": 0, "CLASSIFICATION_TYPE": "U", "NORAD_CAT_ID": 31014, "ELEMENT_SET_NO": 999, "REV_AT_EPOCH": 95793, "BSTAR": 0.00040808367, "MEAN_MOTION_DOT": 5.61e-06, "MEAN_MOTION_DDOT": 0}, "tle": {"line1": "1 31014U 99025BDG 25343.69220399  .00000561  00000+0  40808-3 0  9995", "line2": "2 31014  98.8680 319.4021 0087569 201.7995 331.8601 13.98487967957935"}}, "geometry": {"type": "Point", "coordinates": [142.7407329758639, 15.25920772759702]}}, {"type": "Feature", "properties": {"norad_id": 31016, "name": "FENGYUN 1C DEB", "group": "fengyun-1c-debris", "lat": 35.541627327236, "lon": -5.5759159318484715, "alt_km": 821.5485636279072, "timestamp": "2025-12-10T14:53:37.371585+00:00", "meta": {"OBJECT_NAME": "FENGYUN 1C DEB", "OBJECT_ID": "1999-025BDJ", "EPOCH": "2025-12-09T17:12:18.903744", "MEAN_MOTION": 14.30487106, "ECCENTRICITY": 0.01119752, "INCLINATION": 98.4363, "RA_OF_ASC_NODE": 359.6335, "ARG_OF_PERICENTER": 283.19, "MEAN_ANOMALY": 140.6349, "EPHEMERIS_TYPE": 0, "CLASSIFICATION_TYPE": "U", "NORAD_CAT_ID": 31016, "ELEMENT_SET_NO": 999, "REV_AT_EPOCH": 97427, "BSTAR": 0.0004909379, "MEAN_MOTION_DOT": 1.325e-05, "MEAN_MOTION_DDOT": 0}, "tle": {"line1": "1 31016U 99025BDJ 25343.71688546  .00001325  00000+0  49094-3 0  9997", "line2": "2 31016  98.4363 359.6335 0111975 283.1900 140.6349 14.30487106974277"}}, "geometry": {"type": "Point", "coordinates": [-5.5759159318484715, 35.541627327236]}}, {"type": "Feature", "properties": {"norad_id": 31017, "name": "FENGYUN 1C DEB", "group": "fengyun-1c-debris", "lat": 1.0022483587469047, "lon": 150.98156119660183, "alt_km": 948.30261300446, "timestamp": "2025-12-10T14:53:37.371596+00:00", "meta": {"OBJECT_NAME": "FENGYUN 1C DEB", "OBJECT_ID": "1999-025BDK", "EPOCH": "2025-12-06T04:38:35.153952", "MEAN_MOTION": 14.08805775, "ECCENTRICITY": 0.0113514, "INCLINATION": 98.68, "RA_OF_ASC_NODE": 326.565, "ARG_OF_PERICENTER": 8.6706, "MEAN_ANOMALY": 49.7246, "EPHEMERIS_TYPE": 0, "CLASSIFICATION_TYPE": "U", "NORAD_CAT_ID": 31017, "ELEMENT_SET_NO": 999, "REV_AT_EPOCH": 96204, "BSTAR": 0.00075837839, "MEAN_MOTION_DOT": 1.346e-05, "MEAN_MOTION_DDOT": 0}, "tle": {"line1": "1 31017U 99025BDK 25340.19346243  .00001346  00000+0  75838-3 0  9990", "line2": "2 31017  98.6800 326.5650 0113514   8.6706  49.7246 14.08805775962042"}}, "geometry": {"type": "Point", "coordinates": [150.98156119660183, 1.0022483587469047]}}, {"type": "Feature", "properties": {"norad_id": 31018, "name": "FENGYUN 1C DEB", "group": "fengyun-1c-debris", "lat": -20.31611506696294, "lon": 74.73358474036701, "alt_km": 878.8985906790995, "timestamp": "2025-12-10T14:53:37.371605+00:00", "meta": {"OBJECT_NAME": "FENGYUN 1C DEB", "OBJECT_ID": "1999-025BDL", "EPOCH": "2025-12-10T04:49:22.010016", "MEAN_MOTION": 14.16895627, "ECCENTRICITY": 0.00594242, "INCLINATION": 99.0244, "RA_OF_ASC_NODE": 70.9349, "ARG_OF_PERICENTER": 133.0376, "MEAN_ANOMALY": 227.5796, "EPHEMERIS_TYPE": 0, "CLASSIFICATION_TYPE": "U", "NORAD_CAT_ID": 31018, "ELEMENT_SET_NO": 999, "REV_AT_EPOCH": 96019, "BSTAR": 0.002573678, "MEAN_MOTION_DOT": 5.21e-05, "MEAN_MOTION_DDOT": 0}, "tle": {"line1": "1 31018U 99025BDL 25344.20094919  .00005210  00000+0  25737-2 0  9993", "line2": "2 31018  99.0244  70.9349 0059424 133.0376 227.5796 14.16895627960194"}}, "geometry": {"type": "Point", "coordinates": [74.73358474036701, -20.31611506696294]}}, {"type": "Feature", "properties": {"norad_id": 31019, "name": "FENGYUN 1C DEB", "group": "fengyun-1c-debris", "lat": -15.570010849461761, "lon": -174.27234729711586, "alt_km": 1197.0202739210426, "timestamp": "2025-12-10T14:53:37.371614+00:00", "meta": {"OBJECT_NAME": "FENGYUN 1C DEB", "OBJECT_ID": "1999-025BDM", "EPOCH": "2025-12-06T19:46:46.488288", "MEAN_MOTION": 11.82957686, "ECCENTRICITY": 0.11189634, "INCLINATION": 98.7021, "RA_OF_ASC_NODE": 180.7817, "ARG_OF_PERICENTER": 294.848, "MEAN_ANOMALY": 78.8585, "EPHEMERIS_TYPE": 0, "CLASSIFICATION_TYPE": "U", "NORAD_CAT_ID": 31019, "ELEMENT_SET_NO": 999, "REV_AT_EPOCH": 55111, "BSTAR": 0.0052564036, "MEAN_MOTION_DOT": 1.948e-05, "MEAN_MOTION_DDOT": 0}, "tle": {"line1": "1 31019U 99025BDM 25340.82414917  .00001948  00000+0  52564-2 0  9994", "line2": "2 31019  98.7021 180.7817 1118963 294.8480  78.8585 11.82957686551116"}}, "geometry": {"type": "Point", "coordinates": [-174.27234729711586, -15.570010849461761]}}, {"type": "Feature", "properties": {"norad_id": 31021, "name": "FENGYUN 1C DEB", "group": "fengyun-1c-debris", "lat": 43.02112740821461, "lon": 87.1437854853845, "alt_km": 810.8916418912368, "timestamp": "2025-12-10T14:53:37.371641+00:00", "meta": {"OBJECT_NAME": "FENGYUN 1C DEB", "OBJECT_ID": "1999-025BDP", "EPOCH": "2025-11-23T02:39:04.527648", "MEAN_MOTION": 14.74941254, "ECCENTRICITY": 0.0268991, "INCLINATION": 98.348, "RA_OF_ASC_NODE": 76.9426, "ARG_OF_PERICENTER": 304.648, "MEAN_ANOMALY": 52.9635, "EPHEMERIS_TYPE": 0, "CLASSIFICATION_TYPE": "U", "NORAD_CAT_ID": 31021, "ELEMENT_SET_NO": 999, "REV_AT_EPOCH": 73143, "BSTAR": 0.00041319973, "MEAN_MOTION_DOT": 4.94e-05, "MEAN_MOTION_DDOT": 0}, "tle": {"line1": "1 31021U 99025BDP 25327.11046907  .00004940  00000+0  41320-3 0  9998", "line2": "2 31021  98.3480  76.9426 0268991 304.6480  52.9635 14.74941254731434"}}, "geometry": {"type": "Point", "coordinates": [87.1437854853845, 43.02112740821461]}}, {"type": "Feature", "properties": {"norad_id": 31022, "name": "FENGYUN 1C DEB", "group": "fengyun-1c-debris", "lat": -41.26245412219278, "lon": 39.76383469045283, "alt_km": 938.8284779823307, "timestamp": "2025-12-10T14:53:37.371650+00:00", "meta": {"OBJECT_NAME": "FENGYUN 1C DEB", "OBJECT_ID": "1999-025BDQ", "EPOCH": "2025-12-08T10:01:50.103264", "MEAN_MOTION": 13.90441238, "ECCENTRICITY": 0.01098357, "INCLINATION": 99.5169, "RA_OF_ASC_NODE": 225.9733, "ARG_OF_PERICENTER": 133.3638, "MEAN_ANOMALY": 227.6734, "EPHEMERIS_TYPE": 0, "CLASSIFICATION_TYPE": "U", "NORAD_CAT_ID": 31022, "ELEMENT_SET_NO": 999, "REV_AT_EPOCH": 61948, "BSTAR": 0.00064855511, "MEAN_MOTION_DOT": 8e-06, "MEAN_MOTION_DDOT": 0}, "tle": {"line1": "1 31022U 99025BDQ 25342.41794101  .00000800  00000+0  64856-3 0  9995", "line2": "2 31022  99.5169 225.9733 0109835 133.3638 227.6734 13.90441238619487"}}, "geometry": {"type": "Point", "coordinates": [39.76383469045283, -41.26245412219278]}}, {"type": "Feature", "properties": {"norad_id": 31024, "name": "FENGYUN 1C DEB", "group": "fengyun-1c-debris", "lat": -45.26234253361983, "lon": 68.6630160567638, "alt_km": 833.732677597849, "timestamp": "2025-12-10T14:53:37.371659+00:00", "meta": {"OBJECT_NAME": "FENGYUN 1C DEB", "OBJECT_ID": "1999-025BDS", "EPOCH": "2025-12-08T00:59:52.413504", "MEAN_MOTION": 14.20849862, "ECCENTRICITY": 0.00749361, "INCLINATION": 99.0417, "RA_OF_ASC_NODE": 255.2726, "ARG_OF_PERICENTER": 137.9647, "MEAN_ANOMALY": 222.7312, "EPHEMERIS_TYPE": 0, "CLASSIFICATION_TYPE": "U", "NORAD_CAT_ID": 31024, "ELEMENT_SET_NO": 999, "REV_AT_EPOCH": 96637, "BSTAR": 0.0004116989, "MEAN_MOTION_DOT": 8.7e-06, "MEAN_MOTION_DDOT": 0}, "tle": {"line1": "1 31024U 99025BDS 25342.04157886  .00000870  00000+0  41170-3 0  9990", "line2": "2 31024  99.0417 255.2726 0074936 137.9647 222.7312 14.20849862966371"}}, "geometry": {"type": "Point", "coordinates": [68.6630160567638, -45.26234253361983]}}]}